{
  "norad_id": 68653,
  "name": "QIANFAN GROUP 7 OBJECT T",
  "history": [
    {
      "epoch": "2026-04-15T19:30:43.408224Z",
      "apogee_km": 813.0258971427247,
      "perigee_km": 792.6577687809113,
      "latitude_deg": 3.91123179570615e-05,
      "longitude_deg": -168.88915415515174,
      "height_km": 815.9913691799203,
      "semi_major_axis_km": 7180.978832961818,
      "eccentricity": 0.0014182,
      "inclination_deg": 88.9914,
      "raan_deg": 327.7614,
      "arg_perigee_deg": 188.1152,
      "mean_anomaly_deg": 171.9815,
      "mean_motion_rev_day": 14.26682362
    }
  ]
}