QIANFAN GROUP 7 OBJECT T
1 68653U 26075T   26105.81300241  .00000248  00000+0  96406-4 0  9993
2 68653  88.9914 327.7614 0014182 188.1152 171.9815 14.26682362  1172
